SCD 1                   
1 22490U 93009B   26166.87265731  .00000357  00000+0  46677-4 0  9996
2 22490  24.9679 215.6946 0042106 123.8363  37.2877 14.46118505760921
TECHSAT 1B (GO-32)      
1 25397U 98043D   26166.94050184  .00000030  00000+0  33055-4 0  9994
2 25397  99.0067 159.6676 0000988 165.9028 194.2178 14.24428159451153
SCD 2                   
1 25504U 98060A   26166.45887400  .00000355  00000+0  48192-4 0  9996
2 25504  24.9951  82.8156 0016969 104.8665  56.4534 14.45525235460079
DLR-TUBSAT              
1 25757U 99029B   26166.98451694  .00000058  00000+0  26080-4 0  9994
2 25757  98.6695 162.4490 0014125 358.8952   1.2209 14.52426599433078
TERRA                   
1 25994U 99068A   26166.91984186  .00000303  00000+0  70748-4 0  9993
2 25994  97.9457 216.5163 0001476 193.9796 216.8291 14.61102090409420
MAROC-TUBSAT            
1 27004U 01056D   26166.99160638 -.00000035  00000+0  12862-4 0  9999
2 27004  99.8081 343.8286 0020291 144.2515 335.1144 13.70262445226027
AQUA                    
1 27424U 02022A   26166.88927275  .00000655  00000+0  14002-3 0  9999
2 27424  98.4276 136.1462 0001147  52.7945   0.2603 14.62156455283086
SHIYAN-1 (SY-1)         
1 28220U 04012A   26166.68305646  .00010777  00000+0  33285-3 0  9995
2 28220  97.8693 244.6532 0005733  37.8868 322.2776 15.33727445210869
AURA                    
1 28376U 04026A   26166.89056000  .00000656  00000+0  14256-3 0  9994
2 28376  98.3417 123.3331 0001218  74.2727 285.8608 14.61327444166025
IRS-P5 (CARTOSAT-1)     
1 28649U 05017A   26166.93745260  .00001292  00000+0  13581-3 0  9993
2 28649  97.5308 190.0586 0002610  81.2720 278.8795 14.91046539143636
SINAH 1                 
1 28893U 05043D   26166.89239176  .00000260  00000+0  58862-4 0  9998
2 28893  98.2858 301.2068 0013140 281.2627  78.7099 14.64156920100334
RESURS-DK 1             
1 29228U 06021A   26166.91160514  .00002107  00000+0  12440-3 0  9993
2 29228  69.9341 342.8543 0006925 292.9934  67.0501 15.13214396102384
ARIRANG-2 (KOMPSAT-2)   
1 29268U 06031A   26167.00534953  .00000565  00000+0  11461-3 0  9999
2 29268  97.8299 351.5092 0015926  77.9069  38.5958 14.64660767 61304
LAPAN-TUBSAT            
1 29709U 07001A   26166.97492523  .00000706  00000+0  87409-4 0  9991
2 29709  98.1336 166.1712 0011761 183.0798 177.0346 14.85951474 50972
HAIYANG-1B              
1 31113U 07010A   26166.88624302  .00000068  00000+0  41628-4 0  9999
2 31113  98.3494 148.7819 0012938 200.3373 159.7297 14.31026606   455
COSMO-SKYMED 1          
1 31598U 07023A   26166.93193817  .00002255  00000+0  20070-3 0  9995
2 31598  97.8840 358.7771 0001218  99.0540 261.0819 14.97093894 29609
TERRASAR-X              
1 31698U 07026A   26166.54501914  .00000298  00000+0  17394-4 0  9998
2 31698  97.4452 174.2739 0001604  89.1769 270.9649 15.19148908 52970
WORLDVIEW-1 (WV-1)      
1 32060U 07041A   26166.91346861  .00004932  00000+0  20500-3 0  9999
2 32060  97.3880 286.6750 0002384  24.7149 335.4202 15.24254885 42689
YAOGAN-3                
1 32289U 07055A   26166.98630611  .00002038  00000+0  21292-3 0  9997
2 32289  97.8154 196.8757 0002006  83.4100 276.7346 14.90780400  5695
COSMO-SKYMED 2          
1 32376U 07059A   26166.94585679  .00000332  00000+0  48276-4 0  9994
2 32376  97.8886 350.5618 0001368  86.5098 273.6272 14.82154151  1823
RADARSAT-2              
1 32382U 07061A   26166.91827831  .00000103  00000+0  56905-4 0  9994
2 32382  98.5771 173.8683 0001298  84.6058 275.5273 14.29981744965778
CARTOSAT-2A             
1 32783U 08021A   26166.96422491  .00000841  00000+0  11986-3 0  9992
2 32783  97.7637 215.7144 0013142 112.4423 247.8183 14.79237737978621
HUANJING 1A (HJ-1A)     
1 33320U 08041A   26166.95262586  .00000427  00000+0  57325-4 0  9996
2 33320  97.6674 152.8384 0019853 138.5297 221.7428 14.83982606958223
HUANJING 1B (HJ-1B)     
1 33321U 08041B   26166.98859720  .00000713  00000+0  92448-4 0  9995
2 33321  97.6509 156.0482 0035966 184.9478 175.1386 14.83314317958239
GEOEYE 1                
1 33331U 08042A   26166.92227607  .00000411  00000+0  86140-4 0  9991
2 33331  98.1236 240.8695 0005441  72.7102 287.4696 14.64724752949962
THEOS                   
1 33396U 08049A   26166.91202387  .00000093  00000+0  63471-4 0  9994
2 33396  98.5577 224.2368 0001206  79.3080 280.8232 14.20133231917787
COSMO-SKYMED 3          
1 33412U 08054A   26166.94794563  .00002716  00000+0  18573-3 0  9990
2 33412  97.8284  25.4983 0014287 271.4182  88.5408 15.06946966956758
YAOGAN-4                
1 33446U 08061A   26166.75037597  .00000836  00000+0  10876-3 0  9990
2 33446  97.9307 100.2712 0015736  76.6942 283.6025 14.83197663945457
GOSAT (IBUKI)           
1 33492U 09002A   26166.91107788  .00000973  00000+0  18013-3 0  9998
2 33492  98.0887 278.0082 0001541  84.8716 275.2664 14.67541279931275
DEIMOS-1                
1 35681U 09041A   26166.96548457  .00000621  00000+0  98843-4 0  9990
2 35681  97.7393 324.2457 0001491 130.9414 229.1925 14.75237480906700
