OBJECT_NAME,OBJECT_ID,EPOCH,MEAN_MOTION,ECCENTRICITY,INCLINATION,RA_OF_ASC_NODE,ARG_OF_PERICENTER,MEAN_ANOMALY,EPHEMERIS_TYPE,CLASSIFICATION_TYPE,NORAD_CAT_ID,ELEMENT_SET_NO,REV_AT_EPOCH,BSTAR,MEAN_MOTION_DOT,MEAN_MOTION_DDOT
SCD 1,1993-009B,2026-06-15T20:56:37.591584,14.46118505,.00421068,24.9679,215.6946,123.8363,37.2877,0,U,22490,999,76092,.46676741E-4,.357E-5,0
TECHSAT 1B (GO-32),1998-043D,2026-06-15T22:34:19.358976,14.24428159,.00009888,99.0067,159.6676,165.9028,194.2178,0,U,25397,999,45115,.33054907E-4,.3E-6,0
SCD 2,1998-060A,2026-06-15T11:00:46.713600,14.45525235,.00169696,24.9951,82.8156,104.8665,56.4534,0,U,25504,999,46007,.48192142E-4,.355E-5,0
DLR-TUBSAT,1999-029B,2026-06-15T23:37:42.263616,14.52426599,.00141257,98.6695,162.4490,358.8952,1.2209,0,U,25757,999,43307,.26080326E-4,.58E-6,0
TERRA,1999-068A,2026-06-15T22:04:34.336704,14.61102090,.00014763,97.9457,216.5163,193.9796,216.8291,0,U,25994,999,40942,.70748188E-4,.303E-5,0
MAROC-TUBSAT,2001-056D,2026-06-15T23:47:54.791232,13.70262445,.00202916,99.8081,343.8286,144.2515,335.1144,0,U,27004,999,22602,.1286171E-4,-.35E-6,0
AQUA,2002-022A,2026-06-15T21:20:33.165600,14.62156455,.0001147,98.4276,136.1462,52.7945,0.2603,0,U,27424,999,28308,.14002469E-3,.655E-5,0
SHIYAN-1 (SY-1),2004-012A,2026-06-15T16:23:36.078144,15.33727445,.00057334,97.8693,244.6532,37.8868,322.2776,0,U,28220,999,21086,.33284645E-3,.10777E-3,0
AURA,2004-026A,2026-06-15T21:22:24.384000,14.61327444,.00012183,98.3417,123.3331,74.2727,285.8608,0,U,28376,999,16602,.14255535E-3,.656E-5,0
IRS-P5 (CARTOSAT-1),2005-017A,2026-06-15T22:29:55.904640,14.91046539,.000261,97.5308,190.0586,81.2720,278.8795,0,U,28649,999,14363,.13580682E-3,.1292E-4,0
SINAH 1,2005-043D,2026-06-15T21:25:02.648064,14.64156920,.00131407,98.2858,301.2068,281.2627,78.7099,0,U,28893,999,10033,.5886161E-4,.26E-5,0
RESURS-DK 1,2006-021A,2026-06-15T21:52:42.684096,15.13214396,.00069259,69.9341,342.8543,292.9934,67.0501,0,U,29228,999,10238,.12439525E-3,.2107E-4,0
ARIRANG-2 (KOMPSAT-2),2006-031A,2026-06-16T00:07:42.199392,14.64660767,.00159261,97.8299,351.5092,77.9069,38.5958,0,U,29268,999,6130,.11461025E-3,.565E-5,0
LAPAN-TUBSAT,2007-001A,2026-06-15T23:23:53.539872,14.85951474,.00117613,98.1336,166.1712,183.0798,177.0346,0,U,29709,999,5097,.87408754E-4,.706E-5,0
HAIYANG-1B,2007-010A,2026-06-15T21:16:11.396928,14.31026606,.00129389,98.3494,148.7819,200.3373,159.7297,0,U,31113,999,45,.41628218E-4,.68E-6,0
COSMO-SKYMED 1,2007-023A,2026-06-15T22:21:59.457888,14.97093894,.00012187,97.8840,358.7771,99.0540,261.0819,0,U,31598,999,2960,.20070233E-3,.2255E-4,0
TERRASAR-X,2007-026A,2026-06-15T13:04:49.653696,15.19148908,.00016045,97.4452,174.2739,89.1769,270.9649,0,U,31698,999,5297,.17393623E-4,.298E-5,0
WORLDVIEW-1 (WV-1),2007-041A,2026-06-15T21:55:23.687904,15.24254885,.00023843,97.3880,286.6750,24.7149,335.4202,0,U,32060,999,4268,.20499953E-3,.4932E-4,0
YAOGAN-3,2007-055A,2026-06-15T23:40:16.847904,14.90780400,.00020063,97.8154,196.8757,83.4100,276.7346,0,U,32289,999,569,.21292373E-3,.2038E-4,0
COSMO-SKYMED 2,2007-059A,2026-06-15T22:42:02.026656,14.82154151,.00013689,97.8886,350.5618,86.5098,273.6272,0,U,32376,999,182,.48276361E-4,.332E-5,0
RADARSAT-2,2007-061A,2026-06-15T22:02:19.245984,14.29981744,.00012982,98.5771,173.8683,84.6058,275.5273,0,U,32382,999,96577,.56905271E-4,.103E-5,0
CARTOSAT-2A,2008-021A,2026-06-15T23:08:29.032224,14.79237737,.00131423,97.7637,215.7144,112.4423,247.8183,0,U,32783,999,97862,.11985899E-3,.841E-5,0
HUANJING 1A (HJ-1A),2008-041A,2026-06-15T22:51:46.874304,14.83982606,.00198532,97.6674,152.8384,138.5297,221.7428,0,U,33320,999,95822,.57325496E-4,.427E-5,0
HUANJING 1B (HJ-1B),2008-041B,2026-06-15T23:43:34.798080,14.83314317,.00359661,97.6509,156.0482,184.9478,175.1386,0,U,33321,999,95823,.92447653E-4,.713E-5,0
GEOEYE 1,2008-042A,2026-06-15T22:08:04.652448,14.64724752,.00054413,98.1236,240.8695,72.7102,287.4696,0,U,33331,999,94996,.86140118E-4,.411E-5,0
THEOS,2008-049A,2026-06-15T21:53:18.862368,14.20133231,.00012066,98.5577,224.2368,79.3080,280.8232,0,U,33396,999,91778,.63470604E-4,.93E-6,0
COSMO-SKYMED 3,2008-054A,2026-06-15T22:45:02.502432,15.06946966,.00142873,97.8284,25.4983,271.4182,88.5408,0,U,33412,999,95675,.18572934E-3,.2716E-4,0
YAOGAN-4,2008-061A,2026-06-15T18:00:32.483808,14.83197663,.00157367,97.9307,100.2712,76.6942,283.6025,0,U,33446,999,94545,.10875533E-3,.836E-5,0
GOSAT (IBUKI),2009-002A,2026-06-15T21:51:57.128832,14.67541279,.00015418,98.0887,278.0082,84.8716,275.2664,0,U,33492,999,93127,.18013417E-3,.973E-5,0
DEIMOS-1,2009-041A,2026-06-15T23:10:17.866848,14.75237480,.00014917,97.7393,324.2457,130.9414,229.1925,0,U,35681,999,90670,.98843481E-4,.621E-5,0
